{
    "links": {
        "self": "http://www.neowsapp.com/rest/v1/neo/54051088?api_key=iIulBulltgU6a56xZRHN4H3l9WmuAYTsLGpBGhQ2"
    },
    "id": "54051088",
    "neo_reference_id": "54051088",
    "name": "(2020 PC4)",
    "designation": "2020 PC4",
    "nasa_jpl_url": "http://ssd.jpl.nasa.gov/sbdb.cgi?sstr=54051088",
    "absolute_magnitude_h": 25.657,
    "estimated_diameter": {
        "kilometers": {
            "estimated_diameter_min": 0.0196406102,
            "estimated_diameter_max": 0.0439177395
        },
        "meters": {
            "estimated_diameter_min": 19.6406102074,
            "estimated_diameter_max": 43.9177395433
        },
        "miles": {
            "estimated_diameter_min": 0.0122041056,
            "estimated_diameter_max": 0.0272892097
        },
        "feet": {
            "estimated_diameter_min": 64.4376995928,
            "estimated_diameter_max": 144.0870766031
        }
    },
    "is_potentially_hazardous_asteroid": false,
    "close_approach_data": [
        {
            "close_approach_date": "2020-08-05",
            "close_approach_date_full": "2020-Aug-05 21:06",
            "epoch_date_close_approach": 1596661560000,
            "relative_velocity": {
                "kilometers_per_second": "11.7299653245",
                "kilometers_per_hour": "42227.8751681129",
                "miles_per_hour": "26238.7594343199"
            },
            "miss_distance": {
                "astronomical": "0.0175948452",
                "lunar": "6.8443947828",
                "kilometers": "2632151.364899724",
                "miles": "1635543.0170112312"
            },
            "orbiting_body": "Earth"
        }
    ],
    "orbital_data": {
        "orbit_id": "3",
        "orbit_determination_date": "2020-08-20 07:00:26",
        "first_observation_date": "2020-08-14",
        "last_observation_date": "2020-08-20",
        "data_arc_in_days": 6,
        "observations_used": 14,
        "orbit_uncertainty": "8",
        "minimum_orbit_intersection": ".0128422",
        "jupiter_tisserand_invariant": "3.586",
        "epoch_osculation": "2459076.5",
        "eccentricity": ".5541432351047607",
        "semi_major_axis": "2.047046908862483",
        "inclination": "1.254719100482721",
        "ascending_node_longitude": "96.81598314075325",
        "orbital_period": "1069.769271965573",
        "perihelion_distance": ".9126897123742261",
        "perihelion_argument": "171.2166908796734",
        "aphelion_distance": "3.181404105350739",
        "perihelion_time": "2459032.957734495937",
        "mean_anomaly": "14.65289384566202",
        "mean_motion": ".3365211634267108",
        "equinox": "J2000",
        "orbit_class": {
            "orbit_class_type": "APO",
            "orbit_class_description": "Near-Earth asteroid orbits which cross the Earth’s orbit similar to that of 1862 Apollo",
            "orbit_class_range": "a (semi-major axis) > 1.0 AU; q (perihelion) < 1.017 AU"
        }
    },
    "is_sentry_object": false
}